QIANFAN-81              
1 63167U 25046J   25259.53810120  .00000146  00000+0  20716-3 0  9992
2 63167  88.9842 328.8817 0014740  22.0907 338.0876 13.50976381 35711
QIANFAN-82              
1 63168U 25046K   25259.57098666  .00000143  00000+0  20296-3 0  9990
2 63168  88.9842 328.9218 0013227  31.0467 329.1463 13.50973162 35704
QIANFAN-83              
1 63169U 25046L   25259.56644184  .00000173  00000+0  20818-3 0  9995
2 63169  88.9841 328.8696 0014099  20.5071 339.6650 13.61950602 35738
QIANFAN-84              
1 63170U 25046M   25259.59962965  .00000131  00000+0  18410-3 0  9999
2 63170  88.9842 329.0519 0015997  25.5229 334.6709 13.50978715 35638
QIANFAN-85              
1 63171U 25046N   25259.59576061  .00000157  00000+0  22398-3 0  9996
2 63171  88.9841 328.9244 0013514  29.6641 330.5274 13.50974342 35709
QIANFAN-86              
1 63172U 25046P   25259.60397711  .00000143  00000+0  20262-3 0  9995
2 63172  88.9843 328.7837 0011595  35.5656 324.6266 13.50974839 35781
QIANFAN-87              
1 63173U 25046Q   25259.57517025  .00000138  00000+0  19465-3 0  9991
2 63173  88.9839 328.9015 0012097  30.0892 330.0951 13.50970930 35710
QIANFAN-88              
1 63174U 25046R   25259.59159391  .00000149  00000+0  21167-3 0  9996
2 63174  88.9842 328.8522 0012785  37.3692 322.8346 13.50978596 35745
